ONEWEB-0311             
1 49097U 21075Y   25327.30875078  .00000072  00000+0  15172-3 0  9998
2 49097  87.9137  46.7922 0001522 111.2316 248.8978 13.17650693206512
ONEWEB-0312             
1 49098U 21075Z   25327.24800644  .00000116  00000+0  26549-3 0  9998
2 49098  87.9125  46.8314 0001503  98.1889 261.9413 13.17648275206482
ONEWEB-0313             
1 49099U 21075AA  25327.25295630  .00000071  00000+0  14851-3 0  9996
2 49099  87.9121  46.8382 0001649 104.0827 256.0488 13.17649854206474
ONEWEB-0314             
1 49100U 21075AB  25327.21931516  .00000180  00000+0  43039-3 0  9996
2 49100  87.9140  46.7943 0001463 100.1664 259.9632 13.17648412206449
ONEWEB-0315             
1 49101U 21075AC  25327.21657966 -.00000299  00000+0 -86595-3 0  9998
2 49101  87.8957  31.5585 0001574 112.0555 248.0741 13.12443669208155
ONEWEB-0316             
1 49102U 21075AD  25327.15416110  .00000176  00000+0  41425-3 0  9991
2 49102  87.9200  16.3897 0001778  99.8269 260.3064 13.18684997210059
ONEWEB-0317             
1 49103U 21075AE  25327.21008573 -.00000342  00000+0 -98474-3 0  9992
2 49103  87.8958  31.5763 0002361  87.4050 272.7349 13.12443031208179
ONEWEB-0318             
1 49104U 21075AF  25327.15085924  .00000143  00000+0  32978-3 0  9995
2 49104  87.9203  16.3776 0001636 104.7683 255.3630 13.18684710210011
ONEWEB-0319             
1 49105U 21075AG  25327.23450424  .00000131  00000+0  30320-3 0  9992
2 49105  87.9128  46.8282 0001449 110.3721 249.7566 13.17648500206483
ONEWEB-0323             
1 49106U 21075AH  25327.20035698 -.00000095  00000+0 -29899-3 0  9992
2 49106  87.8964  31.5657 0001191 113.5825 246.5429 13.12442015207530
ONEWEB-0329             
1 49107U 21075AJ  25327.24295184  .00000125  00000+0  28850-3 0  9993
2 49107  87.9125  46.8284 0001663 102.2520 257.8798 13.17648746206466
ONEWEB-0330             
1 49108U 21075AK  25327.24378248 -.00000187  00000+0 -51511-3 0  9997
2 49108  87.9126  46.8335 0001657  95.3631 264.7690 13.17649739206509
ONEWEB-0292             
1 49186U 21083A   25327.10517135  .00000212  00000+0  54500-3 0  9995
2 49186  87.8988   1.2238 0001703 100.3575 259.7746 13.13469610203870
ONEWEB-0303             
1 49187U 21083B   25327.22344029  .00000077  00000+0  16166-3 0  9994
2 49187  87.9204  16.3645 0001716 102.8439 257.2885 13.18684223202838
ONEWEB-0306             
1 49188U 21083C   25327.44117576  .00000029  00000+0  40621-4 0  9995
2 49188  87.9201  16.3059 0002037  95.0622 265.0742 13.18684642202901
ONEWEB-0307             
1 49189U 21083D   25327.09923662  .00000314  00000+0  82455-3 0  9995
2 49189  87.8985   1.2170 0001817  96.3859 263.7478 13.13468443203870
ONEWEB-0320             
1 49190U 21083E   25327.22096735  .00000175  00000+0  41143-3 0  9998
2 49190  87.9197  16.3799 0001874  96.5675 263.5670 13.18683736202839
