[{"OBJECT_NAME":"ONEWEB-0311","OBJECT_ID":"2021-075Y","EPOCH":"2025-11-23T07:24:36.067392","MEAN_MOTION":13.17650693,"ECCENTRICITY":0.0001522,"INCLINATION":87.9137,"RA_OF_ASC_NODE":46.7922,"ARG_OF_PERICENTER":111.2316,"MEAN_ANOMALY":248.8978,"EPHEMERIS_TYPE":0,"CLASSIFICATION_TYPE":"U","NORAD_CAT_ID":49097,"ELEMENT_SET_NO":999,"REV_AT_EPOCH":20651,"BSTAR":0.00015172,"MEAN_MOTION_DOT":7.2e-7,"MEAN_MOTION_DDOT":0},{"OBJECT_NAME":"ONEWEB-0312","OBJECT_ID":"2021-075Z","EPOCH":"2025-11-23T05:57:07.756416","MEAN_MOTION":13.17648275,"ECCENTRICITY":0.0001503,"INCLINATION":87.9125,"RA_OF_ASC_NODE":46.8314,"ARG_OF_PERICENTER":98.1889,"MEAN_ANOMALY":261.9413,"EPHEMERIS_TYPE":0,"CLASSIFICATION_TYPE":"U","NORAD_CAT_ID":49098,"ELEMENT_SET_NO":999,"REV_AT_EPOCH":20648,"BSTAR":0.00026549,"MEAN_MOTION_DOT":1.16e-6,"MEAN_MOTION_DDOT":0},{"OBJECT_NAME":"ONEWEB-0313","OBJECT_ID":"2021-075AA","EPOCH":"2025-11-23T06:04:15.424320","MEAN_MOTION":13.17649854,"ECCENTRICITY":0.0001649,"INCLINATION":87.9121,"RA_OF_ASC_NODE":46.8382,"ARG_OF_PERICENTER":104.0827,"MEAN_ANOMALY":256.0488,"EPHEMERIS_TYPE":0,"CLASSIFICATION_TYPE":"U","NORAD_CAT_ID":49099,"ELEMENT_SET_NO":999,"REV_AT_EPOCH":20647,"BSTAR":0.00014851,"MEAN_MOTION_DOT":7.1e-7,"MEAN_MOTION_DDOT":0},{"OBJECT_NAME":"ONEWEB-0314","OBJECT_ID":"2021-075AB","EPOCH":"2025-11-23T05:15:48.829824","MEAN_MOTION":13.17648412,"ECCENTRICITY":0.0001463,"INCLINATION":87.914,"RA_OF_ASC_NODE":46.7943,"ARG_OF_PERICENTER":100.1664,"MEAN_ANOMALY":259.9632,"EPHEMERIS_TYPE":0,"CLASSIFICATION_TYPE":"U","NORAD_CAT_ID":49100,"ELEMENT_SET_NO":999,"REV_AT_EPOCH":20644,"BSTAR":0.00043039,"MEAN_MOTION_DOT":1.8e-6,"MEAN_MOTION_DDOT":0},{"OBJECT_NAME":"ONEWEB-0315","OBJECT_ID":"2021-075AC","EPOCH":"2025-11-23T05:11:52.482624","MEAN_MOTION":13.12443669,"ECCENTRICITY":0.0001574,"INCLINATION":87.8957,"RA_OF_ASC_NODE":31.5585,"ARG_OF_PERICENTER":112.0555,"MEAN_ANOMALY":248.0741,"EPHEMERIS_TYPE":0,"CLASSIFICATION_TYPE":"U","NORAD_CAT_ID":49101,"ELEMENT_SET_NO":999,"REV_AT_EPOCH":20815,"BSTAR":-0.00086595,"MEAN_MOTION_DOT":-2.99e-6,"MEAN_MOTION_DDOT":0},{"OBJECT_NAME":"ONEWEB-0316","OBJECT_ID":"2021-075AD","EPOCH":"2025-11-23T03:41:59.519040","MEAN_MOTION":13.18684997,"ECCENTRICITY":0.0001778,"INCLINATION":87.92,"RA_OF_ASC_NODE":16.3897,"ARG_OF_PERICENTER":99.8269,"MEAN_ANOMALY":260.3064,"EPHEMERIS_TYPE":0,"CLASSIFICATION_TYPE":"U","NORAD_CAT_ID":49102,"ELEMENT_SET_NO":999,"REV_AT_EPOCH":21005,"BSTAR":0.00041425,"MEAN_MOTION_DOT":1.76e-6,"MEAN_MOTION_DDOT":0},{"OBJECT_NAME":"ONEWEB-0317","OBJECT_ID":"2021-075AE","EPOCH":"2025-11-23T05:02:31.407072","MEAN_MOTION":13.12443031,"ECCENTRICITY":0.0002361,"INCLINATION":87.8958,"RA_OF_ASC_NODE":31.5763,"ARG_OF_PERICENTER":87.405,"MEAN_ANOMALY":272.7349,"EPHEMERIS_TYPE":0,"CLASSIFICATION_TYPE":"U","NORAD_CAT_ID":49103,"ELEMENT_SET_NO":999,"REV_AT_EPOCH":20817,"BSTAR":-0.00098474,"MEAN_MOTION_DOT":-3.42e-6,"MEAN_MOTION_DDOT":0},{"OBJECT_NAME":"ONEWEB-0318","OBJECT_ID":"2021-075AF","EPOCH":"2025-11-23T03:37:14.238336","MEAN_MOTION":13.1868471,"ECCENTRICITY":0.0001636,"INCLINATION":87.9203,"RA_OF_ASC_NODE":16.3776,"ARG_OF_PERICENTER":104.7683,"MEAN_ANOMALY":255.363,"EPHEMERIS_TYPE":0,"CLASSIFICATION_TYPE":"U","NORAD_CAT_ID":49104,"ELEMENT_SET_NO":999,"REV_AT_EPOCH":21001,"BSTAR":0.00032978,"MEAN_MOTION_DOT":1.43e-6,"MEAN_MOTION_DDOT":0},{"OBJECT_NAME":"ONEWEB-0319","OBJECT_ID":"2021-075AG","EPOCH":"2025-11-23T05:37:41.166336","MEAN_MOTION":13.176485,"ECCENTRICITY":0.0001449,"INCLINATION":87.9128,"RA_OF_ASC_NODE":46.8282,"ARG_OF_PERICENTER":110.3721,"MEAN_ANOMALY":249.7566,"EPHEMERIS_TYPE":0,"CLASSIFICATION_TYPE":"U","NORAD_CAT_ID":49105,"ELEMENT_SET_NO":999,"REV_AT_EPOCH":20648,"BSTAR":0.0003032,"MEAN_MOTION_DOT":1.31e-6,"MEAN_MOTION_DDOT":0},{"OBJECT_NAME":"ONEWEB-0323","OBJECT_ID":"2021-075AH","EPOCH":"2025-11-23T04:48:30.843072","MEAN_MOTION":13.12442015,"ECCENTRICITY":0.0001191,"INCLINATION":87.8964,"RA_OF_ASC_NODE":31.5657,"ARG_OF_PERICENTER":113.5825,"MEAN_ANOMALY":246.5429,"EPHEMERIS_TYPE":0,"CLASSIFICATION_TYPE":"U","NORAD_CAT_ID":49106,"ELEMENT_SET_NO":999,"REV_AT_EPOCH":20753,"BSTAR":-0.00029899,"MEAN_MOTION_DOT":-9.5e-7,"MEAN_MOTION_DDOT":0},{"OBJECT_NAME":"ONEWEB-0329","OBJECT_ID":"2021-075AJ","EPOCH":"2025-11-23T05:49:51.038976","MEAN_MOTION":13.17648746,"ECCENTRICITY":0.0001663,"INCLINATION":87.9125,"RA_OF_ASC_NODE":46.8284,"ARG_OF_PERICENTER":102.252,"MEAN_ANOMALY":257.8798,"EPHEMERIS_TYPE":0,"CLASSIFICATION_TYPE":"U","NORAD_CAT_ID":49107,"ELEMENT_SET_NO":999,"REV_AT_EPOCH":20646,"BSTAR":0.0002885,"MEAN_MOTION_DOT":1.25e-6,"MEAN_MOTION_DDOT":0},{"OBJECT_NAME":"ONEWEB-0330","OBJECT_ID":"2021-075AK","EPOCH":"2025-11-23T05:51:02.806272","MEAN_MOTION":13.17649739,"ECCENTRICITY":0.0001657,"INCLINATION":87.9126,"RA_OF_ASC_NODE":46.8335,"ARG_OF_PERICENTER":95.3631,"MEAN_ANOMALY":264.769,"EPHEMERIS_TYPE":0,"CLASSIFICATION_TYPE":"U","NORAD_CAT_ID":49108,"ELEMENT_SET_NO":999,"REV_AT_EPOCH":20650,"BSTAR":-0.00051511,"MEAN_MOTION_DOT":-1.87e-6,"MEAN_MOTION_DDOT":0},{"OBJECT_NAME":"ONEWEB-0292","OBJECT_ID":"2021-083A","EPOCH":"2025-11-23T02:31:26.804640","MEAN_MOTION":13.1346961,"ECCENTRICITY":0.0001703,"INCLINATION":87.8988,"RA_OF_ASC_NODE":1.2238,"ARG_OF_PERICENTER":100.3575,"MEAN_ANOMALY":259.7746,"EPHEMERIS_TYPE":0,"CLASSIFICATION_TYPE":"U","NORAD_CAT_ID":49186,"ELEMENT_SET_NO":999,"REV_AT_EPOCH":20387,"BSTAR":0.000545,"MEAN_MOTION_DOT":2.12e-6,"MEAN_MOTION_DDOT":0},{"OBJECT_NAME":"ONEWEB-0303","OBJECT_ID":"2021-083B","EPOCH":"2025-11-23T05:21:45.241056","MEAN_MOTION":13.18684223,"ECCENTRICITY":0.0001716,"INCLINATION":87.9204,"RA_OF_ASC_NODE":16.3645,"ARG_OF_PERICENTER":102.8439,"MEAN_ANOMALY":257.2885,"EPHEMERIS_TYPE":0,"CLASSIFICATION_TYPE":"U","NORAD_CAT_ID":49187,"ELEMENT_SET_NO":999,"REV_AT_EPOCH":20283,"BSTAR":0.00016166,"MEAN_MOTION_DOT":7.7e-7,"MEAN_MOTION_DDOT":0},{"OBJECT_NAME":"ONEWEB-0306","OBJECT_ID":"2021-083C","EPOCH":"2025-11-23T10:35:17.585664","MEAN_MOTION":13.18684642,"ECCENTRICITY":0.0002037,"INCLINATION":87.9201,"RA_OF_ASC_NODE":16.3059,"ARG_OF_PERICENTER":95.0622,"MEAN_ANOMALY":265.0742,"EPHEMERIS_TYPE":0,"CLASSIFICATION_TYPE":"U","NORAD_CAT_ID":49188,"ELEMENT_SET_NO":999,"REV_AT_EPOCH":20290,"BSTAR":4.0621e-5,"MEAN_MOTION_DOT":2.9e-7,"MEAN_MOTION_DDOT":0},{"OBJECT_NAME":"ONEWEB-0307","OBJECT_ID":"2021-083D","EPOCH":"2025-11-23T02:22:54.043968","MEAN_MOTION":13.13468443,"ECCENTRICITY":0.0001817,"INCLINATION":87.8985,"RA_OF_ASC_NODE":1.217,"ARG_OF_PERICENTER":96.3859,"MEAN_ANOMALY":263.7478,"EPHEMERIS_TYPE":0,"CLASSIFICATION_TYPE":"U","NORAD_CAT_ID":49189,"ELEMENT_SET_NO":999,"REV_AT_EPOCH":20387,"BSTAR":0.00082455,"MEAN_MOTION_DOT":3.14e-6,"MEAN_MOTION_DDOT":0},{"OBJECT_NAME":"ONEWEB-0320","OBJECT_ID":"2021-083E","EPOCH":"2025-11-23T05:18:11.579040","MEAN_MOTION":13.18683736,"ECCENTRICITY":0.0001874,"INCLINATION":87.9197,"RA_OF_ASC_NODE":16.3799,"ARG_OF_PERICENTER":96.5675,"MEAN_ANOMALY":263.567,"EPHEMERIS_TYPE":0,"CLASSIFICATION_TYPE":"U","NORAD_CAT_ID":49190,"ELEMENT_SET_NO":999,"REV_AT_EPOCH":20283,"BSTAR":0.00041143,"MEAN_MOTION_DOT":1.75e-6,"MEAN_MOTION_DDOT":0}]
